[{"OBJECT_NAME":"FLOCK 4G-5","OBJECT_ID":"2025-009BG","EPOCH":"2026-03-09T10:57:11.608704","MEAN_MOTION":15.28679529,"ECCENTRICITY":0.00020946,"INCLINATION":97.4058,"RA_OF_ASC_NODE":151.2478,"ARG_OF_PERICENTER":314.5072,"MEAN_ANOMALY":45.5996,"EPHEMERIS_TYPE":0,"CLASSIFICATION_TYPE":"U","NORAD_CAT_ID":62663,"ELEMENT_SET_NO":999,"REV_AT_EPOCH":6369,"BSTAR":0.00040688068,"MEAN_MOTION_DOT":0.00011278,"MEAN_MOTION_DDOT":0},{"OBJECT_NAME":"STARLINK-35994","OBJECT_ID":"2025-278AD","EPOCH":"2026-03-09T04:37:34.138272","MEAN_MOTION":15.27583304,"ECCENTRICITY":0.00013033,"INCLINATION":43.0009,"RA_OF_ASC_NODE":117.1212,"ARG_OF_PERICENTER":187.8915,"MEAN_ANOMALY":172.1916,"EPHEMERIS_TYPE":0,"CLASSIFICATION_TYPE":"U","NORAD_CAT_ID":66818,"ELEMENT_SET_NO":999,"REV_AT_EPOCH":1513,"BSTAR":0.0012778175,"MEAN_MOTION_DOT":0.00035072,"MEAN_MOTION_DDOT":0}]
